$$SOE
2460154.500000000, A.D. 2023-Jul-29 00:00:00.0000, -2.645260176692885E+08, 2.971416941731710E+07, -6.839994552933691E+07,
2460161.500000000, A.D. 2023-Aug-05 00:00:00.0000, -2.665997340202502E+08, 1.663970429819496E+07, -7.074115220163476E+07,
2460168.500000000, A.D. 2023-Aug-12 00:00:00.0000, -2.680602260134717E+08, 3.526868923447557E+06, -7.291963684241304E+07,
2460175.500000000, A.D. 2023-Aug-19 00:00:00.0000, -2.689140413082678E+08, -9.594042538611151E+06, -7.493308221985325E+07,
2460182.500000000, A.D. 2023-Aug-26 00:00:00.0000, -2.691689963945292E+08, -2.269368064912200E+07, -7.677964675754561E+07,
2460189.500000000, A.D. 2023-Sep-02 00:00:00.0000, -2.688340745565073E+08, -3.574367669958532E+07, -7.845794147529019E+07,
2460196.500000000, A.D. 2023-Sep-09 00:00:00.0000, -2.679193273989727E+08, -4.871666957043465E+07, -7.996700666465870E+07,
2460203.500000000, A.D. 2023-Sep-16 00:00:00.0000, -2.664357802835096E+08, -6.158632440940387E+07, -8.130628858330855E+07,
2460210.500000000, A.D. 2023-Sep-23 00:00:00.0000, -2.643953416474317E+08, -7.432734373013860E+07, -8.247561640937278E+07,
2460217.500000000, A.D. 2023-Sep-30 00:00:00.0000, -2.618107168191861E+08, -8.691547059835804E+07, -8.347517951825592E+07,
2460224.500000000, A.D. 2023-Oct-07 00:00:00.0000, -2.586953288582418E+08, -9.932748526957154E+07, -8.430550506882074E+07,
2460231.500000000, A.D. 2023-Oct-14 00:00:00.0000, -2.550632454725738E+08, -1.115411993693895E+08, -8.496743639746456E+07,
2460238.500000000, A.D. 2023-Oct-21 00:00:00.0000, -2.509291088088788E+08, -1.235354467374242E+08, -8.546211249206755E+07,
2460245.500000000, A.D. 2023-Oct-28 00:00:00.0000, -2.463080694970188E+08, -1.352900693393420E+08, -8.579094830791669E+07,
2460252.500000000, A.D. 2023-Nov-04 00:00:00.0000, -2.412157260989673E+08, -1.467858996293635E+08, -8.595561592618027E+07,
2460259.500000000, A.D. 2023-Nov-11 00:00:00.0000, -2.356680696451973E+08, -1.580047405269047E+08, -8.595802665722877E+07,
2460266.500000000, A.D. 2023-Nov-18 00:00:00.0000, -2.296814328736046E+08, -1.689293435834106E+08, -8.580031414010654E+07,
2460273.500000000, A.D. 2023-Nov-25 00:00:00.0000, -2.232724439109699E+08, -1.795433857734694E+08, -8.548481845519289E+07,
2460280.500000000, A.D. 2023-Dec-02 00:00:00.0000, -2.164579841621494E+08, -1.898314453272353E+08, -8.501407125193581E+07,
2460287.500000000, A.D. 2023-Dec-09 00:00:00.0000, -2.092551501089441E+08, -1.997789770235043E+08, -8.439078189165068E+07,
2460294.500000000, A.D. 2023-Dec-16 00:00:00.0000, -2.016812185035843E+08, -2.093722872493352E+08, -8.361782461136159E+07,
2460301.500000000, A.D. 2023-Dec-23 00:00:00.0000, -1.937536143779276E+08, -2.185985084177491E+08, -8.269822665915710E+07,
2460308.500000000, A.D. 2023-Dec-30 00:00:00.0000, -1.854898829773335E+08, -2.274455719363514E+08, -8.163515716189279E+07,
2460315.500000000, A.D. 2024-Jan-06 00:00:00.0000, -1.769076671617133E+08, -2.359021822981172E+08, -8.043191672208893E+07,
2460322.500000000, A.D. 2024-Jan-13 00:00:00.0000, -1.680246868787842E+08, -2.439577942866856E+08, -7.909192814967285E+07,
2460329.500000000, A.D. 2024-Jan-20 00:00:00.0000, -1.588587192752893E+08, -2.516025903711513E+08, -7.761872815507551E+07,
2460336.500000000, A.D. 2024-Jan-27 00:00:00.0000, -1.494275812735229E+08, -2.588274577696351E+08, -7.601595972685213E+07,
2460343.500000000, A.D. 2024-Feb-03 00:00:00.0000, -1.397491148480713E+08, -2.656239662350171E+08, -7.428736518960968E+07,
2460350.500000000, A.D. 2024-Feb-10 00:00:00.0000, -1.298411745360456E+08, -2.719843469343947E+08, -7.243677994373427E+07,
2460357.500000000, A.D. 2024-Feb-17 00:00:00.0000, -1.197216168522653E+08, -2.779014724783348E+08, -7.046812685003948E+07,
2460364.500000000, A.D. 2024-Feb-24 00:00:00.0000, -1.094082913866039E+08, -2.833688381436793E+08, -6.838541121885772E+07,
2460371.500000000, A.D. 2024-Mar-02 00:00:00.0000, -9.891903338020949E+07, -2.883805443799599E+08, -6.619271637613995E+07,
2460378.500000000, A.D. 2024-Mar-09 00:00:00.0000, -8.827165748712260E+07, -2.929312807146056E+08, -6.389419979740849E+07,
2460385.500000000, A.D. 2024-Mar-16 00:00:00.0000, -7.748395218819024E+07, -2.970163109003636E+08, -6.149408980159035E+07,
2460392.500000000, A.D. 2024-Mar-23 00:00:00.0000, -6.657367483239048E+07, -3.006314582222647E+08, -5.899668267189570E+07,
2460399.500000000, A.D. 2024-Mar-30 00:00:00.0000, -5.555854942106815E+07, -3.037730910045184E+08, -5.640633996419941E+07,
2460406.500000000, A.D. 2024-Apr-06 00:00:00.0000, -4.445626675392480E+07, -3.064381116919844E+08, -5.372748626585451E+07,
2460413.500000000, A.D. 2024-Apr-13 00:00:00.0000, -3.328448326470334E+07, -3.086239486780179E+08, -5.096460762989713E+07,
2460420.500000000, A.D. 2024-Apr-20 00:00:00.0000, -2.206081938508885E+07, -3.103285482097950E+08, -4.812225034833713E+07,
2460427.500000000, A.D. 2024-Apr-27 00:00:00.0000, -1.080285884560739E+07, -3.115503669364039E+08, -4.520501994177891E+07,
2460434.500000000, A.D. 2024-May-04 00:00:00.0000, 4.718512783260816E+05, -3.122883658043779E+08, -4.221758040225947E+07,
2460441.500000000, A.D. 2024-May-11 00:00:00.0000, 1.174580011332676E+07, -3.125420054013460E+08, -3.916465369140963E+07,
2460448.500000000, A.D. 2024-May-18 00:00:00.0000, 2.300151230754153E+07, -3.123112427219247E+08, -3.605101947212352E+07,
2460455.500000000, A.D. 2024-May-25 00:00:00.0000, 3.422154724569061E+07, -3.115965293582724E+08, -3.288151505027930E+07,
2460462.500000000, A.D. 2024-Jun-01 00:00:00.0000, 4.538849831744356E+07, -3.103988111720175E+08, -2.966103551171617E+07,
2460469.500000000, A.D. 2024-Jun-08 00:00:00.0000, 5.648499258037918E+07, -3.087195294728464E+08, -2.639453405380528E+07,
2460476.500000000, A.D. 2024-Jun-15 00:00:00.0000, 6.749369130956572E+07, -3.065606231600776E+08, -2.308702247737022E+07,
2460483.500000000, A.D. 2024-Jun-22 00:00:00.0000, 7.839729052044070E+07, -3.039245306507658E+08, -1.974357162315764E+07,
2460490.500000000, A.D. 2024-Jun-29 00:00:00.0000, 8.917851943530391E+07, -3.008141934091133E+08, -1.636931167836355E+07,
2460497.500000000, A.D. 2024-Jul-06 00:00:00.0000, 9.982013963253577E+07, -2.972330635384696E+08, -1.296943276825914E+07,
2460504.500000000, A.D. 2024-Jul-13 00:00:00.0000, 1.103049469246413E+08, -2.931851126015137E+08, -9.549185750606164E+06,
2460511.500000000, A.D. 2024-Jul-20 00:00:00.0000, 1.206157740793595E+08, -2.886748405050294E+08, -6.113882905723289E+06,
2460518.500000000, A.D. 2024-Jul-27 00:00:00.0000, 1.307354938353969E+08, -2.837072853873458E+08, -2.668898509496629E+06,
2460525.500000000, A.D. 2024-Aug-03 00:00:00.0000, 1.406470226040551E+08, -2.782880348611306E+08, 7.803306854179651E+05,
2460532.500000000, A.D. 2024-Aug-10 00:00:00.0000, 1.503333251492067E+08, -2.724232385975547E+08, 4.228305075928718E+06,
2460539.500000000, A.D. 2024-Aug-17 00:00:00.0000, 1.597774204225860E+08, -2.661196222136731E+08, 7.669461973934382E+06,
2460546.500000000, A.D. 2024-Aug-24 00:00:00.0000, 1.689623887126457E+08, -2.593845024633329E+08, 1.109817554423521E+07,
2460553.500000000, A.D. 2024-Aug-31 00:00:00.0000, 1.778713803582940E+08, -2.522258037610541E+08, 1.450875694089416E+07,
2460560.500000000, A.D. 2024-Sep-07 00:00:00.0000, 1.864876265375572E+08, -2.446520758729179E+08, 1.789545466509107E+07,
2460567.500000000, A.D. 2024-Sep-14 00:00:00.0000, 1.947944523668514E+08, -2.366725117313323E+08, 2.125245526885889E+07,
2460574.500000000, A.D. 2024-Sep-21 00:00:00.0000, 2.027752904361938E+08, -2.282969648992527E+08, 2.457388467820700E+07,
2460581.500000000, A.D. 2024-Sep-28 00:00:00.0000, 2.104136944532236E+08, -2.195359698293482E+08, 2.785380997206645E+07,
2460588.500000000, A.D. 2024-Oct-05 00:00:00.0000, 2.176933568379607E+08, -2.104007648169106E+08, 3.108624133935004E+07,
2460595.500000000, A.D. 2024-Oct-12 00:00:00.0000, 2.245981300921180E+08, -2.009033145551813E+08, 3.426513455514555E+07,
2460602.500000000, A.D. 2024-Oct-19 00:00:00.0000, 2.311120503831723E+08, -1.910563324372330E+08, 3.738439418479323E+07,
2460609.500000000, A.D. 2024-Oct-26 00:00:00.0000, 2.372193635056854E+08, -1.808733032585102E+08, 4.043787752915289E+07,
2460616.500000000, A.D. 2024-Nov-02 00:00:00.0000, 2.429045536727424E+08, -1.703685062980905E+08, 4.341939935611671E+07,
2460623.500000000, A.D. 2024-Nov-09 00:00:00.0000, 2.481523754251668E+08, -1.595570385600827E+08, 4.632273749450541E+07,
2460630.500000000, A.D. 2024-Nov-16 00:00:00.0000, 2.529478888684485E+08, -1.484548379412912E+08, 4.914163937013091E+07,
2460637.500000000, A.D. 2024-Nov-23 00:00:00.0000, 2.572764984656066E+08, -1.370787060979921E+08, 5.186982955544130E+07,
2460644.500000000, A.D. 2024-Nov-30 00:00:00.0000, 2.611239957807040E+08, -1.254463307323957E+08, 5.450101839234608E+07,
2460651.500000000, A.D. 2024-Dec-07 00:00:00.0000, 2.644766067878369E+08, -1.135763065184331E+08, 5.702891177811440E+07,
2460658.500000000, A.D. 2024-Dec-14 00:00:00.0000, 2.673210432497906E+08, -1.014881530584029E+08, 5.944722238712880E+07,
2460665.500000000, A.D. 2024-Dec-21 00:00:00.0000, 2.696445560089425E+08, -8.920233069724560E+07, 6.174968255196512E+07,
2460672.500000000, A.D. 2024-Dec-28 00:00:00.0000, 2.714349922770149E+08, -7.674025669237030E+07, 6.393005848149152E+07,
2460679.500000000, A.D. 2025-Jan-04 00:00:00.0000, 2.726808595986992E+08, -6.412431882966943E+07, 6.598216586529446E+07,
2460686.500000000, A.D. 2025-Jan-11 00:00:00.0000, 2.733713947118173E+08, -5.137788423919887E+07, 6.789988725765559E+07,
2460693.500000000, A.D. 2025-Jan-18 00:00:00.0000, 2.734966363835212E+08, -3.852530369251253E+07, 6.967719133482882E+07,
2460700.500000000, A.D. 2025-Jan-25 00:00:00.0000, 2.730475024021335E+08, -2.559191116879621E+07, 7.130815403960805E+07,
2460707.500000000, A.D. 2025-Feb-01 00:00:00.0000, 2.720158707790232E+08, -1.260401798403348E+07, 7.278698165568347E+07,
2460714.500000000, A.D. 2025-Feb-08 00:00:00.0000, 2.703946650010989E+08, 4.110993166969121E+05, 7.410803585403226E+07,
$$EOE